COMMENT,ORIGINATOR,NORAD_CAT_ID,OBJECT_NAME,OBJECT_TYPE,CLASSIFICATION_TYPE,INTLDES,EPOCH,EPOCH_MICROSECONDS,MEAN_MOTION,ECCENTRICITY,INCLINATION,RA_OF_ASC_NODE,ARG_OF_PERICENTER,MEAN_ANOMALY,EPHEMERIS_TYPE,ELEMENT_SET_NO,REV_AT_EPOCH,BSTAR,MEAN_MOTION_DOT,MEAN_MOTION_DDOT,FILE,TLE_LINE0,TLE_LINE1,TLE_LINE2,OBJECT_ID,OBJECT_NUMBER,SEMIMAJOR_AXIS,PERIOD,APOGEE,PERIGEE,DECAYED
"GENERATED VIA SPACETRACK.ORG API","18 SPCS","55099","SPACEBEE-156","PAYLOAD","U","23001CU","2023-06-09 10:04:18","580800","15.19812906","0.0015267","97.4764","220.6028","35.9212","324.3046","0","999","2392","0.00073811","0.00015812","0","3928876","0 SPACEBEE-156","1 55099U 23001CU  23160.41965950  .00015812  00000-0  73811-3 0  9995","2 55099  97.4764 220.6028 0015267  35.9212 324.3046 15.19812906 23920","2023-001CU","55099","6884.543","94.749","516.918","495.897","0"
"GENERATED VIA SPACETRACK.ORG API","18 SPCS","55099","SPACEBEE-156","PAYLOAD","U","23001CU","2023-06-09 21:07:58","40832","15.19828853","0.0015202","97.4764","221.0596","34.3197","325.9017","0","999","2399","0.00075394","0.00016161","0","3929125","0 SPACEBEE-156","1 55099U 23001CU  23160.88053288  .00016161  00000-0  75394-3 0  9994","2 55099  97.4764 221.0596 0015202  34.3197 325.9017 15.19828853 23999","2023-001CU","55099","6884.494","94.748","516.825","495.894","0"
"GENERATED VIA SPACETRACK.ORG API","18 SPCS","55099","SPACEBEE-156","PAYLOAD","U","23001CU","2023-06-10 09:46:25","574016","15.19844503","0.001514","97.4763","221.5816","32.418","327.7982","0","999","2407","0.00073077","0.00015667","0","3929709","0 SPACEBEE-156","1 55099U 23001CU  23161.40724044  .00015667  00000-0  73077-3 0  9994","2 55099  97.4763 221.5816 0015140  32.4180 327.7982 15.19844503 24071","2023-001CU","55099","6884.447","94.747","516.735","495.889","0"
"GENERATED VIA SPACETRACK.ORG API","18 SPCS","55099","SPACEBEE-156","PAYLOAD","U","23001CU","2023-06-10 20:50:04","266816","15.19858834","0.0015069","97.4763","222.0383","30.7236","329.4877","0","999","2414","0.00073995","0.00015872","0","3929969","0 SPACEBEE-156","1 55099U 23001CU  23161.86810494  .00015872  00000-0  73995-3 0  9996","2 55099  97.4763 222.0383 0015069  30.7236 329.4877 15.19858834 24141","2023-001CU","55099","6884.404","94.746","516.643","495.895","0"
"GENERATED VIA SPACETRACK.ORG API","18 SPCS","55099","SPACEBEE-156","PAYLOAD","U","23001CU","2023-06-11 03:09:17","627328","15.1986797","0.0015026","97.4764","222.2993","29.7574","330.4512","0","999","2418","0.00076547","0.00016427","0","3930216","0 SPACEBEE-156","1 55099U 23001CU  23162.13145402  .00016427  00000-0  76547-3 0  9990","2 55099  97.4764 222.2993 0015026  29.7574 330.4512 15.19867970 24180","2023-001CU","55099","6884.376","94.745","516.586","495.897","0"
"GENERATED VIA SPACETRACK.ORG API","18 SPCS","55099","SPACEBEE-156","PAYLOAD","U","23001CU","2023-06-11 03:09:17","627328","15.1986797","0.0015026","97.4764","222.2993","29.7574","330.4512","0","999","2418","0.00076547","0.00016427","0","3930529","0 SPACEBEE-156","1 55099U 23001CU  23162.13145402  .00016427  00000-0  76547-3 0  9990","2 55099  97.4764 222.2993 0015026  29.7574 330.4512 15.19867970 24180","2023-001CU","55099","6884.376","94.745","516.586","495.897","0"
"GENERATED VIA SPACETRACK.ORG API","18 SPCS","55099","SPACEBEE-156","PAYLOAD","U","23001CU","2023-06-12 02:51:21","562848","15.19900415","0.0014923","97.4767","223.2778","26.2498","333.949","0","999","2433","0.00077306","0.00016606","0","3931287","0 SPACEBEE-156","1 55099U 23001CU  23163.11899957  .00016606  00000-0  77306-3 0  9993","2 55099  97.4767 223.2778 0014923  26.2498 333.9490 15.19900415 24339","2023-001CU","55099","6884.278","94.743","516.417","495.870","0"
"GENERATED VIA SPACETRACK.ORG API","18 SPCS","55099","SPACEBEE-156","PAYLOAD","U","23001CU","2023-06-13 02:33:23","632992","15.19935326","0.0014844","97.477","224.2566","22.856","337.3333","0","999","2448","0.00083101","0.00017876","0","3931850","0 SPACEBEE-156","1 55099U 23001CU  23164.10652353  .00017876  00000-0  83101-3 0  9990","2 55099  97.4770 224.2566 0014844  22.8560 337.3333 15.19935326 24482","2023-001CU","55099","6884.173","94.741","516.257","495.819","0"
"GENERATED VIA SPACETRACK.ORG API","18 SPCS","55099","SPACEBEE-156","PAYLOAD","U","23001CU","2023-06-13 02:33:23","632992","15.19935326","0.0014844","97.477","224.2566","22.856","337.3333","0","999","2448","0.00083101","0.00017876","0","3932134","0 SPACEBEE-156","1 55099U 23001CU  23164.10652353  .00017876  00000-0  83101-3 0  9990","2 55099  97.4770 224.2566 0014844  22.8560 337.3333 15.19935326 24482","2023-001CU","55099","6884.173","94.741","516.257","495.819","0"
"GENERATED VIA SPACETRACK.ORG API","18 SPCS","55099","SPACEBEE-156","PAYLOAD","U","23001CU","2023-06-13 21:30:59","998464","15.19958898","0.0014792","97.4771","225.0391","20.2587","339.9232","0","999","2460","0.00075191","0.00016175","0","3932371","0 SPACEBEE-156","1 55099U 23001CU  23164.89652776  .00016175  00000-0  75191-3 0  9996","2 55099  97.4771 225.0391 0014792  20.2587 339.9232 15.19958898 24600","2023-001CU","55099","6884.102","94.739","516.150","495.784","0"
"GENERATED VIA SPACETRACK.ORG API","18 SPCS","55099","SPACEBEE-156","PAYLOAD","U","23001CU","2023-06-14 08:34:35","677632","15.19972546","0.0014722","97.4774","225.4959","18.6274","341.5497","0","999","2467","0.00071156","0.00015307","0","3932938","0 SPACEBEE-156","1 55099U 23001CU  23165.35735738  .00015307  00000-0  71156-3 0  9991","2 55099  97.4774 225.4959 0014722  18.6274 341.5497 15.19972546 24679","2023-001CU","55099","6884.061","94.739","516.060","495.791","0"
"GENERATED VIA SPACETRACK.ORG API","18 SPCS","55099","SPACEBEE-156","PAYLOAD","U","23001CU","2023-06-14 08:34:35","677632","15.19972546","0.0014722","97.4774","225.4959","18.6274","341.5497","0","999","2467","0.00071156","0.00015307","0","3932965","0 SPACEBEE-156","1 55099U 23001CU  23165.35735738  .00015307  00000-0  71156-3 0  9991","2 55099  97.4774 225.4959 0014722  18.6274 341.5497 15.19972546 24679","2023-001CU","55099","6884.061","94.739","516.060","495.791","0"
"GENERATED VIA SPACETRACK.ORG API","18 SPCS","55099","SPACEBEE-156","PAYLOAD","U","23001CU","2023-06-14 19:38:11","8608","15.19985242","0.0014661","97.4773","225.9526","16.9816","343.1907","0","999","2474","0.00064492","0.00013869","0","3933215","0 SPACEBEE-156","1 55099U 23001CU  23165.81818297  .00013869  00000-0  64492-3 0  9990","2 55099  97.4773 225.9526 0014661  16.9816 343.1907 15.19985242 24747","2023-001CU","55099","6884.022","94.738","515.980","495.795","0"
"GENERATED VIA SPACETRACK.ORG API","18 SPCS","55099","SPACEBEE-156","PAYLOAD","U","23001CU","2023-06-15 08:16:33","846816","15.19998798","0.0014605","97.4772","226.4747","15.0787","345.088","0","999","2482","0.00059378","0.00012767","0","3933820","0 SPACEBEE-156","1 55099U 23001CU  23166.34483619  .00012767  00000-0  59378-3 0  9998","2 55099  97.4772 226.4747 0014605  15.0787 345.0880 15.19998798 24822","2023-001CU","55099","6883.981","94.737","515.900","495.792","0"
"GENERATED VIA SPACETRACK.ORG API","18 SPCS","55099","SPACEBEE-156","PAYLOAD","U","23001CU","2023-06-15 17:45:20","692512","15.20011331","0.001456","97.477","226.8661","13.6014","346.561","0","999","2488","0.00066058","0.00014219","0","3934065","0 SPACEBEE-156","1 55099U 23001CU  23166.73982283  .00014219  00000-0  66058-3 0  9999","2 55099  97.4770 226.8661 0014560  13.6014 346.5610 15.20011331 24880","2023-001CU","55099","6883.943","94.736","515.831","495.785","0"
"GENERATED VIA SPACETRACK.ORG API","18 SPCS","55099","SPACEBEE-156","PAYLOAD","U","23001CU","2023-06-15 17:45:20","692512","15.20011331","0.001456","97.477","226.8661","13.6014","346.561","0","999","2488","0.00066058","0.00014219","0","3934071","0 SPACEBEE-156","1 55099U 23001CU  23166.73982283  .00014219  00000-0  66058-3 0  9999","2 55099  97.4770 226.8661 0014560  13.6014 346.5610 15.20011331 24880","2023-001CU","55099","6883.943","94.736","515.831","495.785","0"
"GENERATED VIA SPACETRACK.ORG API","18 SPCS","55099","SPACEBEE-156","PAYLOAD","U","23001CU","2023-06-16 09:33:17","932608","15.20042447","0.0014461","97.4768","227.5188","11.043","349.112","0","999","2498","0.0010103","0.00021824","0","3934632","0 SPACEBEE-156","1 55099U 23001CU  23167.39812422  .00021824  00000-0  10103-2 0  9998","2 55099  97.4768 227.5188 0014461  11.0430 349.1120 15.20042447 24981","2023-001CU","55099","6883.849","94.734","515.669","495.760","0"
"GENERATED VIA SPACETRACK.ORG API","18 SPCS","55099","SPACEBEE-156","PAYLOAD","U","23001CU","2023-06-16 09:33:17","932608","15.20042447","0.0014461","97.4768","227.5188","11.043","349.112","0","999","2498","0.0010103","0.00021824","0","3934686","0 SPACEBEE-156","1 55099U 23001CU  23167.39812422  .00021824  00000-0  10103-2 0  9998","2 55099  97.4768 227.5188 0014461  11.0430 349.1120 15.20042447 24981","2023-001CU","55099","6883.849","94.734","515.669","495.760","0"
"GENERATED VIA SPACETRACK.ORG API","18 SPCS","55099","SPACEBEE-156","PAYLOAD","U","23001CU","2023-06-16 19:02:03","760512","15.20058092","0.001441","97.4768","227.9103","9.5293","350.6213","0","999","2504","0.00096552","0.0002086","0","3934949","0 SPACEBEE-156","1 55099U 23001CU  23167.79309908  .00020860  00000-0  96552-3 0  9994","2 55099  97.4768 227.9103 0014410   9.5293 350.6213 15.20058092 25046","2023-001CU","55099","6883.802","94.733","515.587","495.748","0"
"GENERATED VIA SPACETRACK.ORG API","18 SPCS","55099","SPACEBEE-156","PAYLOAD","U","23001CU","2023-06-17 02:56:01","688064","15.20069359","0.0014387","97.4767","228.2367","8.337","351.8101","0","999","2509","0.00084324","0.00018209","0","3935591","0 SPACEBEE-156","1 55099U 23001CU  23168.12224176  .00018209  00000-0  84324-3 0  9993","2 55099  97.4767 228.2367 0014387   8.3370 351.8101 15.20069359 25099","2023-001CU","55099","6883.768","94.733","515.537","495.730","0"
